OBJECT_NAME,OBJECT_ID,EPOCH,MEAN_MOTION,ECCENTRICITY,INCLINATION,RA_OF_ASC_NODE,ARG_OF_PERICENTER,MEAN_ANOMALY,EPHEMERIS_TYPE,CLASSIFICATION_TYPE,NORAD_CAT_ID,ELEMENT_SET_NO,REV_AT_EPOCH,BSTAR,MEAN_MOTION_DOT,MEAN_MOTION_DDOT
STARLINK-31078,2023-203W,2024-01-20T22:00:00.999936,15.27529863,.0002344,42.9996,139.9214,267.7907,306.1777,0,U,58638,999,575,.27225E-2,.7531E-3,0
STARLINK-31070,2023-203X,2024-01-20T22:00:00.999936,15.27896627,.0001534,42.9999,139.8649,267.1434,330.0224,0,U,58639,999,575,-.40525E-1,-.1034575E-1,0
STARLINK-31090,2023-203Y,2024-01-18T14:19:58.462752,15.51272279,.0000764,42.9986,152.2500,198.5725,161.5108,0,U,58640,999,541,.11953E-2,.72199E-3,0
TIANMU-1 11,2023-205A,2024-01-20T18:56:54.313728,15.13862424,.0011493,97.4199,49.7132,177.3138,182.8157,0,U,58645,999,405,.31904E-3,.5714E-4,0
TIANMU-1 12,2023-205B,2024-01-20T19:01:24.349152,15.13631310,.0010393,97.4185,49.7039,173.0651,187.0726,0,U,58646,999,404,.33593E-3,.598E-4,0
TIANMU-1 13,2023-205C,2024-01-20T19:11:11.757696,15.13151298,.0010836,97.4216,49.7058,166.2158,193.9371,0,U,58647,999,404,.34739E-3,.6104E-4,0
TIANMU-1 14,2023-205D,2024-01-20T17:27:05.237280,15.13621376,.0011028,97.4141,49.6227,170.8911,189.2523,0,U,58648,999,403,.32878E-3,.585E-4,0
SHIYAN 24C 01,2023-206A,2024-01-20T19:42:49.879296,15.06672625,.0011605,97.3357,28.6310,175.8167,184.3160,0,U,58650,999,389,.36173E-3,.5318E-4,0
SHIYAN 24C 02,2023-206B,2024-01-20T19:41:37.539168,15.06661193,.0009844,97.3360,28.6331,197.0327,163.0572,0,U,58651,999,389,.31651E-3,.4642E-4,0
SHIYAN 24C 03,2023-206C,2024-01-20T19:42:42.510240,15.06675475,.0011407,97.3353,28.6295,194.0295,166.0618,0,U,58652,999,388,.24942E-3,.3648E-4,0
BEIDOU-3 M25,2023-207A,2024-01-19T12:00:00.000000,1.86231622,.0003594,55.0020,92.1740,252.7320,285.8580,0,U,58654,999,45,0,-.68E-6,0
BEIDOU-3 M26,2023-207B,2024-01-05T20:19:36.281280,1.85607573,.0316732,54.6471,92.7627,68.9835,87.0455,0,U,58655,999,19,0,-.37E-6,0
COSMOS 2574,2023-209A,2024-01-20T17:30:37.493568,15.72827192,.0004559,96.7549,279.1938,311.9494,48.1382,0,U,58658,999,384,.22969E-3,.30977E-3,0
TIANMU-1 19,2023-208A,2024-01-20T20:30:03.837312,15.13154555,.0011754,97.3998,137.3093,156.5343,203.6427,0,U,58660,999,372,.45414E-3,.8004E-4,0
TIANMU-1 20,2023-208B,2024-01-20T20:21:48.968352,15.14086161,.0011348,97.3920,137.2914,168.3696,191.7800,0,U,58661,999,372,.42884E-3,.7754E-4,0
TIANMU-1 21,2023-208C,2024-01-20T20:19:11.788608,15.14315932,.0010392,97.3966,137.3089,168.7284,191.4183,0,U,58662,999,372,.46043E-3,.8383E-4,0
TIANMU-1 22,2023-208D,2024-01-20T20:11:40.046208,15.14629846,.0010761,97.3980,137.3205,177.4794,182.6495,0,U,58663,999,372,.42822E-3,.7861E-4,0
STARLINK-31113,2023-211B,2024-01-20T22:00:00.999936,15.45398865,.0001331,42.9996,156.6973,276.0383,282.3247,0,U,58668,999,471,-.49919E-1,-.2158273E-1,0
STARLINK-31128,2023-211C,2024-01-20T14:00:01.000224,15.48888814,.0001785,42.9996,158.6131,255.8954,253.8925,0,U,58669,999,449,.91752E-3,.50697E-3,0
STARLINK-31083,2023-211D,2024-01-20T14:00:01.000224,15.45662444,.0001105,42.9996,158.6475,284.7768,211.6533,0,U,58670,999,460,-.50265E-1,-.2188877E-1,0
STARLINK-30828,2023-211E,2024-01-20T14:00:01.000224,15.48882213,.0002415,42.9996,158.6346,258.7312,242.6395,0,U,58671,999,422,.84967E-3,.46891E-3,0
STARLINK-31104,2023-211F,2024-01-20T22:00:00.999936,15.43421980,.0001005,42.9998,156.7226,265.6678,283.3374,0,U,58672,999,471,-.53309E-1,-.2153657E-1,0
STARLINK-31131,2023-211G,2024-01-20T22:00:00.999936,15.81693056,.0001827,42.9969,154.3225,281.9470,150.4554,0,U,58673,999,473,-.47595E-2,-.891688E-2,0
STARLINK-31124,2023-211H,2024-01-20T14:00:01.000224,15.47614347,.0001055,42.9996,158.6322,283.9649,218.4641,0,U,58674,999,460,-.46303E-1,-.2162253E-1,0
STARLINK-31126,2023-211J,2024-01-20T22:00:00.999936,15.41087544,.0001199,42.9998,156.6768,267.3929,298.3861,0,U,58675,999,461,-.57637E-1,-.2190333E-1,0
STARLINK-31066,2023-211K,2024-01-20T22:00:00.999936,15.50375685,.0001036,42.9998,155.9081,282.8519,233.8096,0,U,58676,999,472,-.32648E-1,-.169852E-1,0
STARLINK-31058,2023-211L,2024-01-20T14:00:01.000224,15.48212381,.0001313,42.9996,158.6247,301.8199,203.5620,0,U,58677,999,460,-.46562E-1,-.2213869E-1,0
STARLINK-31125,2023-211M,2024-01-20T22:00:00.999936,15.48938399,.0001838,42.9997,156.6769,295.1265,272.1972,0,U,58678,999,461,-.35288E-3,-.19819E-3,0
STARLINK-31110,2023-211N,2024-01-20T22:00:00.999936,15.48649167,.0001236,42.9997,156.6749,264.1347,304.0188,0,U,58679,999,471,-.44827E-1,-.2170342E-1,0
STARLINK-31112,2023-211P,2024-01-20T22:00:00.999936,15.49347326,.0001119,42.9996,156.6706,263.3134,306.4843,0,U,58680,999,461,-.26484E-1,-.1339518E-1,0
