TIANMU-1 11             
1 58645U 23205A   24020.78951752  .00005714  00000+0  31904-3 0  9998
2 58645  97.4199  49.7132 0011493 177.3138 182.8157 15.13862424  4050
TIANMU-1 12             
1 58646U 23205B   24020.79264293  .00005980  00000+0  33593-3 0  9998
2 58646  97.4185  49.7039 0010393 173.0651 187.0726 15.13631310  4049
TIANMU-1 13             
1 58647U 23205C   24020.79944164  .00006104  00000+0  34739-3 0  9993
2 58647  97.4216  49.7058 0010836 166.2158 193.9371 15.13151298  4048
TIANMU-1 14             
1 58648U 23205D   24020.72714395  .00005850  00000+0  32878-3 0  9997
2 58648  97.4141  49.6227 0011028 170.8911 189.2523 15.13621376  4030
TIANMU-1 19             
1 58660U 23208A   24020.85421108  .00008004  00000+0  45414-3 0  9999
2 58660  97.3998 137.3093 0011754 156.5343 203.6427 15.13154555  3724
TIANMU-1 20             
1 58661U 23208B   24020.84848343  .00007754  00000+0  42884-3 0  9992
2 58661  97.3920 137.2914 0011348 168.3696 191.7800 15.14086161  3722
TIANMU-1 21             
1 58662U 23208C   24020.84666422  .00008383  00000+0  46043-3 0  9999
2 58662  97.3966 137.3089 0010392 168.7284 191.4183 15.14315932  3724
TIANMU-1 22             
1 58663U 23208D   24020.84143572  .00007861  00000+0  42822-3 0  9997
2 58663  97.3980 137.3205 0010761 177.4794 182.6495 15.14629846  3724
STARLINK-31078          
1 58638U 23203W   24020.91667824  .00075310  00000+0  27225-2 0  9996
2 58638  42.9996 139.9214 0002344 267.7907 306.1777 15.27529863  5757
STARLINK-31070          
1 58639U 23203X   24020.91667824 -.01034575  00000+0 -40525-1 0  9995
2 58639  42.9999 139.8649 0001534 267.1434 330.0224 15.27896627  5759
STARLINK-31090          
1 58640U 23203Y   24018.59720443  .00072199  00000+0  11953-2 0  9990
2 58640  42.9986 152.2500 0000764 198.5725 161.5108 15.51272279  5415
SHIYAN 24C 01           
1 58650U 23206A   24020.82141064  .00005318  00000+0  36173-3 0  9990
2 58650  97.3357  28.6310 0011605 175.8167 184.3160 15.06672625  3891
SHIYAN 24C 02           
1 58651U 23206B   24020.82057337  .00004642  00000+0  31651-3 0  9995
2 58651  97.3360  28.6331 0009844 197.0327 163.0572 15.06661193  3894
SHIYAN 24C 03           
1 58652U 23206C   24020.82132535  .00003648  00000+0  24942-3 0  9990
2 58652  97.3353  28.6295 0011407 194.0295 166.0618 15.06675475  3886
BEIDOU-3 M25            
1 58654U 23207A   24019.50000000 -.00000068  00000+0  00000+0 0  9996
2 58654  55.0020  92.1740 0003594 252.7320 285.8580  1.86231622   453
BEIDOU-3 M26            
1 58655U 23207B   24005.84694770 -.00000037  00000+0  00000+0 0  9998
2 58655  54.6471  92.7627 0316732  68.9835  87.0455  1.85607573   193
COSMOS 2574             
1 58658U 23209A   24020.72960062  .00030977  00000+0  22969-3 0  9994
2 58658  96.7549 279.1938 0004559 311.9494  48.1382 15.72827192  3842
STARLINK-31113          
1 58668U 23211B   24020.91667824 -.02158273  00000+0 -49919-1 0  9995
2 58668  42.9996 156.6973 0001331 276.0383 282.3247 15.45398865  4712
STARLINK-31128          
1 58669U 23211C   24020.58334491  .00050697  00000+0  91752-3 0  9991
2 58669  42.9996 158.6131 0001785 255.8954 253.8925 15.48888814  4495
STARLINK-31083          
1 58670U 23211D   24020.58334491 -.02188877  00000+0 -50265-1 0  9991
2 58670  42.9996 158.6475 0001105 284.7768 211.6533 15.45662444  4604
STARLINK-30828          
1 58671U 23211E   24020.58334491  .00046891  00000+0  84967-3 0  9995
2 58671  42.9996 158.6346 0002415 258.7312 242.6395 15.48882213  4222
STARLINK-31104          
1 58672U 23211F   24020.91667824 -.02153657  00000+0 -53309-1 0  9999
2 58672  42.9998 156.7226 0001005 265.6678 283.3374 15.43421980  4715
STARLINK-31131          
1 58673U 23211G   24020.91667824 -.00891688  00000+0 -47595-2 0  9992
2 58673  42.9969 154.3225 0001827 281.9470 150.4554 15.81693056  4733
STARLINK-31124          
1 58674U 23211H   24020.58334491 -.02162253  00000+0 -46303-1 0  9993
2 58674  42.9996 158.6322 0001055 283.9649 218.4641 15.47614347  4608
STARLINK-31126          
1 58675U 23211J   24020.91667824 -.02190333  00000+0 -57637-1 0  9992
2 58675  42.9998 156.6768 0001199 267.3929 298.3861 15.41087544  4618
STARLINK-31066          
1 58676U 23211K   24020.91667824 -.01698520  00000+0 -32648-1 0  9998
2 58676  42.9998 155.9081 0001036 282.8519 233.8096 15.50375685  4728
STARLINK-31058          
1 58677U 23211L   24020.58334491 -.02213869  00000+0 -46562-1 0  9993
2 58677  42.9996 158.6247 0001313 301.8199 203.5620 15.48212381  4609
STARLINK-31125          
1 58678U 23211M   24020.91667824 -.00019819  00000+0 -35288-3 0  9992
2 58678  42.9997 156.6769 0001838 295.1265 272.1972 15.48938399  4616
STARLINK-31110          
1 58679U 23211N   24020.91667824 -.02170342  00000+0 -44827-1 0  9991
2 58679  42.9997 156.6749 0001236 264.1347 304.0188 15.48649167  4711
STARLINK-31112          
1 58680U 23211P   24020.91667824 -.01339518  00000+0 -26484-1 0  9993
2 58680  42.9996 156.6706 0001119 263.3134 306.4843 15.49347326  4616
